OBJECT_NAME,OBJECT_ID,EPOCH,MEAN_MOTION,ECCENTRICITY,INCLINATION,RA_OF_ASC_NODE,ARG_OF_PERICENTER,MEAN_ANOMALY,EPHEMERIS_TYPE,CLASSIFICATION_TYPE,NORAD_CAT_ID,ELEMENT_SET_NO,REV_AT_EPOCH,BSTAR,MEAN_MOTION_DOT,MEAN_MOTION_DDOT
STARLINK-2492,2021-027BK,2026-06-20T00:49:22.516032,15.31701162,.00012788,53.1609,36.8232,83.6434,276.4713,0,U,48149,999,28835,.47002939E-4,.1094E-4,0
STARLINK-2493,2021-027BL,2026-06-20T00:29:12.010560,15.31698787,.00010066,53.1613,36.6962,109.1583,250.9527,0,U,48150,999,28836,.2045396E-4,.27E-5,0
STARLINK-2503,2021-027BM,2026-06-20T03:30:51.734304,15.31711440,.00011437,53.1608,36.0199,87.9661,272.1471,0,U,48151,999,28838,.5406746E-4,.1314E-4,0
SHIYAN-6 03 (SY-6 03),2021-028A,2026-06-19T23:51:05.018976,13.77600971,.00471927,99.5274,184.8964,80.0375,280.6097,0,U,48157,999,25989,.19360373E-4,-.26E-6,0
ONEWEB-0176,2021-031A,2026-06-20T07:11:44.465280,13.14503658,.00019165,87.8968,289.0788,104.2190,255.9153,0,U,48210,999,24872,.29273371E-3,.121E-5,0
ONEWEB-0184,2021-031B,2026-06-20T06:32:54.880224,13.14503123,.00016954,87.8976,289.0852,125.8914,234.2374,0,U,48211,999,24869,-.46778439E-3,-.161E-5,0
ONEWEB-0179,2021-031C,2026-06-20T07:46:24.509856,14.25524723,.02188728,87.8992,286.2172,246.8729,110.9266,0,U,48212,999,24949,.58721876E-4,.195E-5,0
ONEWEB-0180,2021-031D,2026-06-20T06:37:30.275040,13.14497509,.00022595,87.8984,289.0788,113.1916,246.9452,0,U,48213,999,24862,-.19300025E-2,-.703E-5,0
ONEWEB-0218,2021-031E,2026-06-20T07:09:27.729504,13.14502614,.00019893,87.8976,289.0753,127.3044,232.8267,0,U,48214,999,24878,.11984525E-3,.57E-6,0
ONEWEB-0209,2021-031F,2026-06-20T06:53:27.715776,13.14502089,.00021654,87.8967,289.0944,102.8094,257.3278,0,U,48215,999,24878,-.3383728E-3,-.113E-5,0
ONEWEB-0198,2021-031G,2026-06-20T06:30:50.407200,13.14502534,.00021378,87.8961,289.0966,112.1156,248.0200,0,U,48216,999,24889,-.40813617E-3,-.139E-5,0
ONEWEB-0189,2021-031H,2026-06-20T06:48:54.259776,13.14503552,.00020988,87.8971,289.0805,109.8782,250.2574,0,U,48217,999,24863,-.37780266E-3,-.127E-5,0
ONEWEB-0196,2021-031J,2026-06-19T21:08:53.361888,13.14502830,.00020225,87.8969,289.1697,104.4478,255.6876,0,U,48218,999,24858,-.85704255E-4,-.19E-6,0
ONEWEB-0183,2021-031K,2026-06-20T07:30:00.670464,13.14503338,.00020489,87.8967,289.0818,96.1640,263.9723,0,U,48219,999,24873,.75071551E-3,.291E-5,0
ONEWEB-0185,2021-031L,2026-06-20T06:18:04.177440,13.14502690,.00023765,87.8976,289.0854,99.9244,260.2154,0,U,48220,999,24865,-.97852212E-4,-.23E-6,0
ONEWEB-0187,2021-031M,2026-06-19T20:41:16.204704,13.14501101,.00021167,87.8961,289.1806,103.6961,256.4405,0,U,48221,999,24861,.68004481E-3,.265E-5,0
ONEWEB-0192,2021-031N,2026-06-20T06:55:44.938848,13.14501370,.00019276,87.8967,289.0860,103.8000,256.3345,0,U,48222,999,24858,-.26240949E-3,-.84E-6,0
ONEWEB-0219,2021-031P,2026-06-20T06:26:02.825664,13.14501271,.00021587,87.8968,289.0819,102.7094,257.4278,0,U,48223,999,24878,-.38807108E-3,-.131E-5,0
ONEWEB-0202,2021-031Q,2026-06-19T20:50:37.735584,13.14502616,.00019555,87.8971,289.1744,121.5455,238.5866,0,U,48224,999,24871,.40969427E-3,.165E-5,0
ONEWEB-0204,2021-031R,2026-06-20T06:47:44.870208,13.14507597,.00021097,87.8974,289.0863,91.2563,268.8808,0,U,48225,999,24866,-.3444913E-2,-.1264E-4,0
ONEWEB-0205,2021-031S,2026-06-20T06:12:21.031200,13.14501163,.00021818,87.8976,289.0844,105.0178,255.1193,0,U,48226,999,24867,.13760421E-3,.64E-6,0
ONEWEB-0206,2021-031T,2026-06-20T07:23:09.088512,13.14504599,.00018173,87.8971,289.0761,97.7960,262.3376,0,U,48227,999,24863,.6974182E-3,.271E-5,0
ONEWEB-0182,2021-031U,2026-06-20T07:16:18.672960,13.14502994,.00020753,87.8968,289.0846,95.4503,264.6863,0,U,48228,999,24884,.41029218E-3,.165E-5,0
ONEWEB-0186,2021-031V,2026-06-20T05:42:41.103936,13.14502689,.000204,87.8977,289.0885,101.9971,258.1388,0,U,48229,999,24878,.61758884E-3,.242E-5,0
ONEWEB-0181,2021-031W,2026-06-20T07:00:19.345248,13.14503643,.0002045,87.8957,289.1065,105.9508,254.1847,0,U,48230,999,24864,-.14843557E-3,-.42E-6,0
ONEWEB-0188,2021-031X,2026-06-19T20:57:27.589536,13.14503898,.00019944,87.8961,289.1893,100.8425,259.2929,0,U,48231,999,24849,.12704498E-3,.6E-6,0
ONEWEB-0220,2021-031Y,2026-06-20T07:02:35.567808,13.14502785,.00022713,87.8974,289.0788,102.3330,257.8054,0,U,48232,999,24881,-.33245212E-4,0,0
ONEWEB-0165,2021-031Z,2026-06-19T20:46:03.348192,13.14501147,.00020244,87.8971,289.1770,112.2208,247.9137,0,U,48233,999,24871,.51331854E-3,.203E-5,0
ONEWEB-0199,2021-031AA,2026-06-20T07:20:52.446912,13.14503683,.00018173,87.8975,289.0750,95.6581,264.4756,0,U,48234,999,24867,.22320975E-3,.96E-6,0
ONEWEB-0203,2021-031AB,2026-06-20T07:07:10.782912,13.14502975,.00018044,87.8973,289.0804,103.9026,256.2305,0,U,48235,999,24868,.63450541E-4,.36E-6,0
ONEWEB-0197,2021-031AC,2026-06-20T06:30:25.549056,13.14504188,.00021958,87.8965,289.0712,96.4258,263.7122,0,U,48236,999,24859,-.41118481E-3,-.14E-5,0
ONEWEB-0194,2021-031AD,2026-06-19T20:52:54.513696,13.14502091,.00016929,87.8970,289.1734,99.4471,260.6851,0,U,48237,999,24871,.37813392E-3,.153E-5,0
ONEWEB-0193,2021-031AE,2026-06-20T06:23:46.923648,13.14502508,.0001506,87.8966,289.0848,96.5815,263.5486,0,U,48238,999,24871,-.28390547E-3,-.92E-6,0
ONEWEB-0191,2021-031AF,2026-06-20T06:39:46.402560,13.14502794,.00020198,87.8976,289.0815,95.4340,264.7020,0,U,48239,999,24857,-.55805434E-3,-.194E-5,0
ONEWEB-0195,2021-031AG,2026-06-19T20:58:36.502176,13.14501359,.00021301,87.8975,289.1626,111.2173,248.9184,0,U,48240,999,24850,-.4666686E-5,.11E-6,0
ONEWEB-0201,2021-031AH,2026-06-20T07:39:19.071072,13.14504487,.00022431,87.8965,289.0897,97.1913,262.9471,0,U,48241,999,24879,.60392239E-3,.237E-5,0
ONEWEB-0207,2021-031AJ,2026-06-20T07:10:35.901696,13.14503055,.00022045,87.8971,289.0788,97.7651,262.3729,0,U,48242,999,24870,.19913625E-3,.87E-6,0
ONEWEB-0208,2021-031AK,2026-06-20T06:44:19.995072,13.14503921,.00020498,87.8970,289.0888,110.9993,249.1356,0,U,48243,999,24871,-.47914509E-3,-.165E-5,0
ONEWEB-0200,2021-031AL,2026-06-20T02:12:35.758656,13.14502513,.00020053,87.8977,289.1133,102.8887,257.2466,0,U,48244,999,24861,.6785119E-3,.264E-5,0
ONEWEB-0217,2021-031AM,2026-06-19T21:06:35.195328,13.14500797,.00020026,87.8975,289.1601,111.5724,248.5619,0,U,48245,999,24853,-.20421208E-3,-.63E-6,0
PLEIADES NEO 3,2021-034A,2026-06-20T07:00:38.190816,14.81669553,.00013263,97.8927,246.0142,90.4679,269.6686,0,U,48268,999,27811,.92148283E-4,.673E-5,0
LEMUR-2-AMANDA-SVANTE,2021-034B,2026-06-20T03:52:54.091488,15.34444227,.00026747,97.5757,249.5260,198.4440,161.6706,0,U,48269,999,28151,.81655772E-3,.27226E-3,0
AII-BRAVO,2021-034C,2026-06-19T16:24:11.411424,15.03498600,.00040662,97.5627,225.5375,246.3698,113.7101,0,U,48270,999,27999,.23537664E-3,.315E-4,0
TYVAK-182A,2021-034D,2026-06-19T17:19:33.448224,15.06182474,.00048987,97.5710,229.5952,331.6538,28.4421,0,U,48271,999,28021,.2997254E-3,.433E-4,0
NORSAT 3,2021-034E,2026-06-20T08:00:18.593856,15.05292738,.00055872,97.5303,228.5287,296.2802,63.7850,0,U,48272,999,28031,.13228029E-3,.1832E-4,0
LEMUR-2-SPECIAL-K,2021-034F,2026-06-20T05:15:05.298912,15.65252015,.00045893,97.5647,258.2969,225.4698,134.6186,0,U,48273,999,28216,.14310769E-2,.143897E-2,0
CSS (TIANHE),2021-035A,2026-06-19T17:28:49.105632,15.60907257,.00073498,41.4696,306.5363,99.2772,260.8898,0,U,48274,999,29356,.23343205E-3,.19835E-3,0
STARLINK-2567,2021-036A,2026-06-19T15:56:34.456416,15.31709212,.00010888,53.1597,296.5275,85.4787,274.6339,0,U,48276,999,28436,.11244912E-3,.3127E-4,0
STARLINK-2569,2021-036B,2026-06-19T12:29:58.544736,15.32031064,.00013748,53.1243,259.2385,266.0378,94.0466,0,U,48277,999,28487,.11568221E-2,.36081E-3,0
STARLINK-2543,2021-036C,2026-06-19T13:32:51.452160,15.31721122,.00009979,53.1601,270.4529,84.6893,275.4222,0,U,48278,999,28472,.79877916E-4,.2116E-4,0
STARLINK-2565,2021-036E,2026-06-19T18:42:38.244384,15.31702218,.00011336,53.1603,346.2479,104.9066,255.2061,0,U,48280,999,28367,-.37723336E-4,-.1535E-4,0
STARLINK-2558,2021-036G,2026-06-19T18:53:27.618144,15.31703911,.00014901,53.1593,320.4624,86.1593,273.9578,0,U,48282,999,28405,.51561913E-4,.1235E-4,0
STARLINK-2516,2021-036H,2026-06-20T05:37:43.961376,15.31709988,.00011224,53.1587,318.3145,91.5926,268.5204,0,U,48283,999,28412,.21280471E-3,.6246E-4,0
STARLINK-2564,2021-036J,2026-06-19T16:39:18.431712,15.31706696,.00010219,53.1593,321.3414,85.8722,274.2396,0,U,48284,999,28402,.30232268E-4,.573E-5,0
STARLINK-2547,2021-036L,2026-06-19T15:25:23.556864,15.31702729,.00008737,53.1604,321.1473,99.1467,260.9634,0,U,48286,999,28402,.42047661E-4,.94E-5,0
STARLINK-2566,2021-036M,2026-06-20T03:17:45.280896,15.31702268,.00011154,53.1604,321.2067,87.7797,272.3332,0,U,48287,999,28406,.16347884E-4,.142E-5,0
STARLINK-2545,2021-036P,2026-06-19T18:53:01.048416,15.31707974,.00009072,53.1599,320.7116,116.4293,243.6801,0,U,48289,999,28404,.16947491E-4,.161E-5,0
STARLINK-2555,2021-036R,2026-06-19T15:59:54.005856,15.31698090,.00013057,53.1607,323.4007,90.3703,269.7448,0,U,48291,999,28399,.25344023E-4,.421E-5,0
STARLINK-2542,2021-036S,2026-06-19T19:06:50.762304,15.31695352,.0001156,53.1610,320.2303,90.6264,269.4870,0,U,48292,999,28405,.43594863E-4,.988E-5,0
STARLINK-2550,2021-036T,2026-06-19T16:19:04.931616,15.31698905,.00010781,53.1599,320.9327,84.1872,275.9253,0,U,48293,999,28403,-.24182742E-4,-.1115E-4,0
STARLINK-2533,2021-036U,2026-06-19T17:39:36.495648,15.31700419,.00012369,53.1597,320.6254,86.4662,273.6481,0,U,48294,999,28404,.2489065E-5,-.288E-5,0
STARLINK-2535,2021-036V,2026-06-20T03:23:32.192448,15.31707123,.00011813,53.1608,318.9028,82.1467,277.9668,0,U,48295,999,28410,.10696091E-3,.2956E-4,0
STARLINK-2559,2021-036Y,2026-06-19T19:05:44.239488,15.35772591,.00026401,53.1596,319.7223,298.1098,61.9638,0,U,48298,999,28406,.11759705E-2,.4136E-3,0
STARLINK-2557,2021-036Z,2026-06-19T20:20:41.496864,15.31706402,.00009413,53.1600,320.0818,68.2684,291.8418,0,U,48299,999,28406,.45314431E-4,.1042E-4,0
